MEAN_MOTION;ECCENTRICITY;INCLINATION;RA_OF_ASC_NODE;ARG_OF_PERICENTER;MEAN_ANOMALY;BSTAR;MEAN_MOTION_DOT;MEAN_MOTION_DDOT;TYPE
14.73371909;0.0005547;48.447;307.0821;358.8814;88.84;2.1814E-5;-5.9E-7;0;Orbcomm
14.73372215;0.0005504;48.4469;301.972;3.5114;88.6606;2.2445E-5;-5.5E-7;0;Orbcomm
14.73372251;0.0005506;48.4468;301.6603;3.7838;80.0514;2.2907E-5;-5.2E-7;0;Orbcomm
14.7337265;0.0005455;48.4467;297.2055;7.9793;61.1635;2.5389E-5;-3.6E-7;0;Orbcomm
14.73372706;0.0005461;48.4467;296.5285;8.6167;104.323;2.5783E-5;-3.3E-7;0;Orbcomm
14.73372842;0.0005445;48.4467;294.6617;10.2634;48.4891;2.5613E-5;-3.5E-7;0;Orbcomm
14.73373048;0.0005423;48.4466;292.0349;12.7419;129.179;2.6166E-5;-3.1E-7;0;Orbcomm
14.73373078;0.0005431;48.4466;291.701;12.9933;145.5999;2.6313E-5;-3.0E-7;0;Orbcomm
14.73373221;0.0005405;48.4465;289.203;15.2723;81.104;2.5497E-5;-3.5E-7;0;Orbcomm
14.73373273;0.0005395;48.4465;288.5454;15.9307;102.3104;2.5105E-5;-3.8E-7;0;Orbcomm
14.73373597;0.0005326;48.4464;284.4731;19.8422;12.0626;2.5056E-5;-3.8E-7;0;Orbcomm
14.73373746;0.0005326;48.4464;282.7759;21.4522;125.0584;2.5268E-5;-3.7E-7;0;Orbcomm
14.73374018;0.0005278;48.4463;278.6503;25.3642;95.04;2.4338E-5;-4.3E-7;0;Orbcomm
14.73374396;0.0005229;48.4462;274.209;29.6812;60.735;2.4974E-5;-3.9E-7;0;Orbcomm
14.73374559;0.0005229;48.4461;272.6084;31.1894;64.8156;2.6014E-5;-3.2E-7;0;Orbcomm
14.73377115;0.0005229;48.4461;256.7303;45.5266;314.6082;7.7966E-5;3.08E-6;0;Orbcomm
14.73375705;0.0005096;48.446;255.6998;47.4096;42.292;2.6481E-5;-2.9E-7;0;Orbcomm
14.73375985;0.0005059;48.446;251.928;51.1436;333.0911;2.7727E-5;-2.1E-7;0;Orbcomm
14.73376426;0.0005033;48.4461;246.7379;56.1757;62.8573;2.8221E-5;-1.7E-7;0;Orbcomm
14.73376447;0.0005036;48.4461;246.4454;56.4445;32.583;2.842E-5;-1.6E-7;0;Orbcomm
14.73376723;0.0005023;48.4462;242.3448;60.4604;334.1522;2.7572E-5;-2.2E-7;0;Orbcomm
14.73376764;0.0005037;48.4462;241.6513;61.0623;35.902;2.7484E-5;-2.2E-7;0;Orbcomm
14.73377185;0.0005012;48.4463;236.2074;66.5084;51.5509;2.6733E-5;-2.7E-7;0;Orbcomm
14.73377217;0.0005016;48.4463;235.8681;66.8545;74.0064;2.6826E-5;-2.7E-7;0;Orbcomm
14.73377531;0.0004987;48.4464;231.4082;71.4352;60.5018;2.5619E-5;-3.4E-7;0;Orbcomm
14.73377552;0.0004985;48.4464;231.0693;71.7478;82.5848;2.5349E-5;-3.6E-7;0;Orbcomm
14.73377904;0.0004973;48.4465;226.6155;76.1971;62.4246;2.5299E-5;-3.7E-7;0;Orbcomm
14.73377904;0.0004973;48.4465;226.6155;76.1971;62.4246;2.5299E-5;-3.7E-7;0;Orbcomm
14.73378133;0.0004964;48.4465;222.4599;80.3634;66.1137;2.4035E-5;-4.5E-7;0;Orbcomm
14.73378383;0.000495;48.4465;219.0419;83.839;318.3411;2.4076E-5;-4.5E-7;0;Orbcomm
14.73378671;0.0004936;48.4464;214.5876;88.4862;298.3921;2.459E-5;-4.1E-7;0;Orbcomm
14.73378691;0.000493;48.4465;214.2469;88.8452;322.4465;2.4357E-5;-4.3E-7;0;Orbcomm
14.73378995;0.0004914;48.4464;210.105;93.031;310.6683;2.5793E-5;-3.3E-7;0;Orbcomm
14.73379364;0.0004901;48.4465;204.9928;98.1708;312.5749;2.6774E-5;-2.7E-7;0;Orbcomm
14.7337941;0.0004909;48.4465;204.6581;98.4672;329.8182;2.7398E-5;-2.3E-7;0;Orbcomm
14.73379549;0.0004941;48.4465;203.3043;99.7878;55.8282;2.8439E-5;-1.6E-7;0;Orbcomm
14.7337985;0.0004938;48.4466;198.8512;104.2802;34.8182;2.8229E-5;-1.7E-7;0;Orbcomm
14.73380084;0.0004943;48.4466;195.3807;107.8001;346.3188;2.7403E-5;-2.3E-7;0;Orbcomm
14.73380507;0.0004946;48.4466;190.6122;112.6552;320.8571;2.8645E-5;-1.5E-7;0;Orbcomm
14.73380908;0.0004952;48.4466;185.8148;117.5487;327.8556;2.8553E-5;-1.5E-7;0;Orbcomm
14.73381292;0.0004954;48.4465;181.3598;122.0379;308.9751;2.872E-5;-1.4E-7;0;Orbcomm
14.73381624;0.000497;48.4464;176.5609;126.7767;317.9025;2.7016E-5;-2.5E-7;0;Orbcomm
14.7338192;0.0004982;48.4463;171.7667;131.5249;321.3786;2.5126E-5;-3.8E-7;0;Orbcomm
14.73381982;0.0004986;48.4462;171.0855;132.1647;9.2339;2.5237E-5;-3.7E-7;0;Orbcomm
14.73382267;0.0005013;48.4461;166.2958;136.7596;7.6264;2.3802E-5;-4.6E-7;0;Orbcomm
14.73382499;0.0005031;48.446;162.5124;140.4908;311.7649;2.3531E-5;-4.8E-7;0;Orbcomm
14.73382765;0.0005067;48.4458;157.3478;145.4566;12.78;2.2132E-5;-5.7E-7;0;Orbcomm
14.73383082;0.0005087;48.4458;152.5813;150.0489;344.9364;2.2813E-5;-5.3E-7;0;Orbcomm
14.73383386;0.0005112;48.4458;148.4264;154.0128;347.9248;2.3694E-5;-4.7E-7;0;Orbcomm
14.73383716;0.000514;48.4458;143.6295;158.5582;354.5121;2.3994E-5;-4.5E-7;0;Orbcomm
14.73383732;0.0005137;48.4458;143.3269;158.842;335.6433;2.3857E-5;-4.6E-7;0;Orbcomm
14.73384029;0.0005168;48.4458;138.8391;163.0428;353.8812;2.3236E-5;-5.0E-7;0;Orbcomm
14.73384045;0.0005165;48.4458;138.5322;163.322;339.7834;2.3061E-5;-5.1E-7;0;Orbcomm
14.73384344;0.0005193;48.4458;134.0724;167.4851;326.5785;2.2527E-5;-5.5E-7;0;Orbcomm
14.73384646;0.0005227;48.4458;129.6161;171.5971;309.4175;2.1789E-5;-5.9E-7;0;Orbcomm
14.73384835;0.0005251;48.4458;126.5001;174.5258;221.3441;2.0848E-5;-6.6E-7;0;Orbcomm
14.73384986;0.0005262;48.4458;124.8179;176.0145;317.5358;2.181E-5;-5.9E-7;0;Orbcomm
14.73385294;0.0005297;48.4458;121.3458;179.2354;270.9329;2.3111E-5;-5.1E-7;0;Orbcomm
14.73385384;0.0005297;48.4458;120.3621;180.0878;299.7727;2.3887E-5;-4.6E-7;0;Orbcomm
14.73385657;0.0005323;48.4459;115.9023;184.0822;286.626;2.3935E-5;-4.5E-7;0;Orbcomm
14.73385681;0.0005325;48.4459;115.5633;184.3769;308.6601;2.3935E-5;-4.5E-7;0;Orbcomm
14.73385963;0.0005367;48.4459;110.7685;188.6707;313.15;2.3183E-5;-5.0E-7;0;Orbcomm
14.73386252;0.0005389;48.4461;106.3087;192.5656;300.0775;2.3746E-5;-4.7E-7;0;Orbcomm
14.73386474;0.0005409;48.4462;102.8368;195.6058;253.4258;2.3531E-5;-4.8E-7;0;Orbcomm
14.73386583;0.000541;48.4463;101.5139;196.7037;304.7398;2.4383E-5;-4.2E-7;0;Orbcomm
14.73386789;0.000544;48.4464;98.0659;199.7202;231.1269;2.3868E-5;-4.6E-7;0;Orbcomm
14.73386895;0.0005438;48.4464;96.7158;200.8167;313.2017;2.4247E-5;-4.3E-7;0;Orbcomm
14.73387177;0.0005466;48.4466;92.2595;204.5995;296.357;2.3787E-5;-4.6E-7;0;Orbcomm
14.73387475;0.0005498;48.4468;87.4614;208.6921;304.9509;2.2961E-5;-5.2E-7;0;Orbcomm
14.73387624;0.0005514;48.4469;85.3212;210.5678;197.2896;2.2808E-5;-5.3E-7;0;Orbcomm
14.73387841;0.0005529;48.447;83.0068;212.4291;286.2552;2.3978E-5;-4.5E-7;0;Orbcomm
14.73387937;0.0005545;48.447;80.8658;214.2775;179.5743;2.2749E-5;-5.3E-7;0;Orbcomm
14.73388087;0.0005555;48.4471;78.2043;216.4501;299.9163;2.1946E-5;-5.8E-7;0;Orbcomm
14.73388336;0.000558;48.4473;74.3923;219.5931;276.8784;2.2E-5;-5.8E-7;0;Orbcomm
14.73388381;0.000558;48.4473;73.7525;220.1448;278.0709;2.2018E-5;-5.8E-7;0;Orbcomm
14.73388506;0.0005593;48.4473;71.6251;221.9547;156.1163;2.1827E-5;-5.9E-7;0;Orbcomm
14.73388618;0.0005592;48.4474;69.6001;223.5657;278.9691;2.1792E-5;-5.9E-7;0;Orbcomm
14.73388668;0.0005592;48.4474;68.9507;224.1102;291.0205;2.1836E-5;-5.9E-7;0;Orbcomm
14.73388883;0.0005616;48.4476;64.4983;227.7852;269.9755;2.0556E-5;-6.8E-7;0;Orbcomm
14.73389057;0.0005632;48.4477;61.7248;230.0477;156.4204;2.053E-5;-6.8E-7;0;Orbcomm
14.73389213;0.0005639;48.4477;59.6949;231.7948;284.6118;2.1676E-5;-6.0E-7;0;Orbcomm
14.73389693;0.0005669;48.448;51.0911;238.8488;263.5173;2.0986E-5;-6.5E-7;0;Orbcomm
14.73389737;0.0005671;48.448;50.4483;239.4315;268.0194;2.1119E-5;-6.4E-7;0;Orbcomm
14.73390047;0.0005685;48.4482;45.9868;243.0808;257.4883;2.2238E-5;-5.7E-7;0;Orbcomm
14.73390231;0.0005702;48.4482;42.8762;245.6108;164.0588;2.1615E-5;-6.1E-7;0;Orbcomm
14.73390374;0.0005701;48.4483;41.1917;247.0372;262.97;2.26E-5;-5.4E-7;0;Orbcomm
14.73390728;0.0005713;48.4483;38.4169;249.2988;150.9839;2.6497E-5;-2.9E-7;0;Orbcomm
14.73390922;0.0005714;48.4483;36.7329;250.6741;249.426;2.8725E-5;-1.4E-7;0;Orbcomm
14.7339101;0.0005723;48.4483;33.9592;252.9105;136.1294;2.508E-5;-3.8E-7;0;Orbcomm
14.73391058;0.0005727;48.4483;33.264;253.4398;199.8603;2.5079E-5;-3.8E-7;0;Orbcomm
14.73391444;0.000573;48.4483;29.1629;256.8069;143.0112;2.671E-5;-2.7E-7;0;Orbcomm
14.73391463;0.0005731;48.4483;28.8301;257.0548;158.1684;2.6619E-5;-2.8E-7;0;Orbcomm
14.73392018;0.0005738;48.4483;24.0339;260.9638;164.8241;3.0443E-5;-3.0E-8;0;Orbcomm
14.73392109;0.0005733;48.4482;23.0215;261.8017;226.1657;3.0754E-5;-1.0E-8;0;Orbcomm
14.73392347;0.0005737;48.4482;19.576;264.5317;150.127;2.8937E-5;-1.3E-7;0;Orbcomm
14.73392442;0.0005736;48.4482;18.223;265.7201;235.314;2.8741E-5;-1.4E-7;0;Orbcomm
14.7339269;0.0005737;48.4482;14.7554;268.48;184.2535;2.7154E-5;-2.4E-7;0;Orbcomm
14.73392912;0.0005736;48.4482;13.4336;269.5842;234.3225;3.0333E-5;-3.0E-8;0;Orbcomm
14.73393055;0.000574;48.4482;9.9895;272.2707;156.7348;2.6496E-5;-2.9E-7;0;Orbcomm
14.73393384;0.0005733;48.4482;5.5018;275.8989;175.586;2.5206E-5;-3.7E-7;0;Orbcomm
14.73393391;0.0005734;48.4482;5.1905;276.1491;166.4551;2.4923E-5;-3.9E-7;0;Orbcomm
14.73393663;0.0005727;48.4481;0.7445;279.753;138.4281;2.3256E-5;-5.0E-7;0;Orbcomm
14.73393741;0.0005722;48.4481;359.7194;280.6465;214.0002;2.3335E-5;-4.9E-7;0;Orbcomm
14.73393812;0.000572;48.4481;359.3872;280.8936;228.427;2.4371E-5;-4.3E-7;0;Orbcomm
14.73394011;0.0005713;48.4481;355.9366;283.5879;158.3168;2.251E-5;-5.5E-7;0;Orbcomm
14.73394082;0.0005708;48.4481;354.925;284.4483;218.6437;2.2427E-5;-5.5E-7;0;Orbcomm
14.7339433;0.00057;48.448;351.1408;287.5029;164.4893;2.2097E-5;-5.7E-7;0;Orbcomm
14.73394378;0.0005697;48.448;350.4654;288.0959;205.918;2.2106E-5;-5.7E-7;0;Orbcomm
14.73394616;0.0005685;48.448;346.682;291.0643;150.7701;2.1318E-5;-6.3E-7;0;Orbcomm
14.73394879;0.0005666;48.4478;341.8867;294.9923;156.3188;2.071E-5;-6.7E-7;0;Orbcomm
14.7339494;0.0005659;48.4478;340.8749;295.8244;216.8534;2.0489E-5;-6.8E-7;0;Orbcomm
14.7339518;0.000564;48.4478;337.0933;298.8547;159.8378;2.0812E-5;-6.6E-7;0;Orbcomm
14.73395341;0.0005627;48.4477;334.2898;301.1218;80.0348;2.0801E-5;-6.6E-7;0;Orbcomm
14.73395437;0.0005611;48.4477;332.2952;302.7547;168.429;2.0446E-5;-6.8E-7;0;Orbcomm
14.73395616;0.0005598;48.4477;329.495;304.9759;84.9857;2.0705E-5;-6.7E-7;0;Orbcomm
14.73395675;0.0005583;48.4477;327.4695;306.6956;208.1797;1.9547E-5;-7.4E-7;0;Orbcomm
14.73395857;0.0005578;48.4476;324.7152;309.12;72.6664;2.0699E-5;-6.7E-7;0;Orbcomm
14.73395896;0.0005563;48.4477;323.0415;310.572;159.3908;1.9514E-5;-7.4E-7;0;Orbcomm
